ONEWEB-0056             
1 45159U 20008AE  26197.98605905  .00000696  00000+0  19578-2 0  9993
2 45159  87.8822  30.3233 0002083  84.4122 275.7243 13.10372354312082
ONEWEB-0057             
1 45160U 20008AF  26198.23237301  .00000103  00000+0  26022-3 0  9991
2 45160  87.8816  30.2858 0001503  74.1637 285.9656 13.10369119312280
ONEWEB-0058             
1 45161U 20008AG  26197.91373302  .00000633  00000+0  17779-2 0  9994
2 45161  87.8811  30.3529 0001924  96.7431 263.3915 13.10373497312317
ONEWEB-0059             
1 45162U 20008AH  26197.98636077  .00000702  00000+0  19737-2 0  9996
2 45162  87.8816  30.3380 0001572  88.8853 271.2455 13.10373600312220
ONEWEB-0062             
1 45163U 20008AJ  26198.23888109 -.00000220  00000+0 -66554-3 0  9998
2 45163  87.8817  30.2775 0002083  95.0231 265.1135 13.10369226312122
ONEWEB-0065             
1 45164U 20008AK  26198.27280724 -.00000267  00000+0 -80054-3 0  9994
2 45164  87.8823  30.2785 0001803  78.1688 281.9642 13.10376426311823
ONEWEB-0066             
1 45424U 20020A   26198.20759334 -.00000523  00000+0 -15125-2 0  9999
2 45424  87.8882  15.0922 0001736  94.8705 265.2621 13.11420054306612
ONEWEB-0067             
1 45425U 20020B   26198.24532874  .00000423  00000+0  11583-2 0  9993
2 45425  87.8905  15.0127 0001733  86.6499 273.4827 13.11425775306672
ONEWEB-0080             
1 45426U 20020C   26198.24508114  .00000370  00000+0  10073-2 0  9998
2 45426  87.8895  15.0846 0002114  97.3231 262.8138 13.11417120306645
ONEWEB-0090             
1 45427U 20020D   26197.96869724 -.00000227  00000+0 -67705-3 0  9992
2 45427  87.8893  15.1435 0001917  93.0229 267.1119 13.11415304306570
ONEWEB-0061             
1 45428U 20020E   26198.00063596 -.00000047  00000+0 -16789-3 0  9998
2 45428  87.8892  15.1215 0001844  92.1059 268.0280 13.11418631306537
ONEWEB-0081             
1 45429U 20020F   26197.98211844 -.00000476  00000+0 -13794-2 0  9994
2 45429  87.8888  15.1342 0001632  90.9859 269.1456 13.11416850306643
ONEWEB-0069             
1 45430U 20020G   26198.21283630 -.00000636  00000+0 -18292-2 0  9991
2 45430  87.8891  15.0919 0001643  94.0316 266.0999 13.11418334306606
ONEWEB-0031             
1 45431U 20020H   26197.94315170  .00000532  00000+0  14665-2 0  9999
2 45431  87.8882  15.1484 0001994  94.8327 265.3029 13.11418109306554
ONEWEB-0027             
1 45432U 20020J   26197.95206710  .00000008  00000+0 -13852-4 0  9998
2 45432  87.9147 359.9439 0002289  92.7229 267.4164 13.17652018310277
ONEWEB-0064             
1 45433U 20020K   26198.24662958  .00000483  00000+0  13275-2 0  9995
2 45433  87.8887  15.0809 0002037  92.1074 268.0287 13.11416409306625
