{"fetched_at":"2026-07-17T17:37:53.421Z","source":"https://celestrak.org/NORAD/elements/gp.php?GROUP=oneweb&FORMAT=JSON","constellation":"oneweb","records":[{"OBJECT_NAME":"ONEWEB-0056","OBJECT_ID":"2020-008AE","EPOCH":"2026-07-16T23:39:55.501920","CLASSIFICATION_TYPE":"U","MEAN_MOTION":13.10372354,"ECCENTRICITY":0.00020836,"INCLINATION":87.8822,"RA_OF_ASC_NODE":30.3233,"ARG_OF_PERICENTER":84.4122,"MEAN_ANOMALY":275.7243,"EPHEMERIS_TYPE":0,"NORAD_CAT_ID":45159,"ELEMENT_SET_NO":999,"REV_AT_EPOCH":31208,"BSTAR":0.001957835,"MEAN_MOTION_DOT":0.00000696,"MEAN_MOTION_DDOT":0},{"OBJECT_NAME":"ONEWEB-0057","OBJECT_ID":"2020-008AF","EPOCH":"2026-07-17T05:34:37.028064","CLASSIFICATION_TYPE":"U","MEAN_MOTION":13.10369119,"ECCENTRICITY":0.00015033,"INCLINATION":87.8816,"RA_OF_ASC_NODE":30.2858,"ARG_OF_PERICENTER":74.1637,"MEAN_ANOMALY":285.9656,"EPHEMERIS_TYPE":0,"NORAD_CAT_ID":45160,"ELEMENT_SET_NO":999,"REV_AT_EPOCH":31228,"BSTAR":0.00026021848,"MEAN_MOTION_DOT":0.00000103,"MEAN_MOTION_DDOT":0},{"OBJECT_NAME":"ONEWEB-0058","OBJECT_ID":"2020-008AG","EPOCH":"2026-07-16T21:55:46.532928","CLASSIFICATION_TYPE":"U","MEAN_MOTION":13.10373497,"ECCENTRICITY":0.00019244,"INCLINATION":87.8811,"RA_OF_ASC_NODE":30.3529,"ARG_OF_PERICENTER":96.7431,"MEAN_ANOMALY":263.3915,"EPHEMERIS_TYPE":0,"NORAD_CAT_ID":45161,"ELEMENT_SET_NO":999,"REV_AT_EPOCH":31231,"BSTAR":0.0017778911,"MEAN_MOTION_DOT":0.00000633,"MEAN_MOTION_DDOT":0},{"OBJECT_NAME":"ONEWEB-0059","OBJECT_ID":"2020-008AH","EPOCH":"2026-07-16T23:40:21.570528","CLASSIFICATION_TYPE":"U","MEAN_MOTION":13.103736,"ECCENTRICITY":0.00015724,"INCLINATION":87.8816,"RA_OF_ASC_NODE":30.338,"ARG_OF_PERICENTER":88.8853,"MEAN_ANOMALY":271.2455,"EPHEMERIS_TYPE":0,"NORAD_CAT_ID":45162,"ELEMENT_SET_NO":999,"REV_AT_EPOCH":31222,"BSTAR":0.001973734,"MEAN_MOTION_DOT":0.00000702,"MEAN_MOTION_DDOT":0},{"OBJECT_NAME":"ONEWEB-0062","OBJECT_ID":"2020-008AJ","EPOCH":"2026-07-17T05:43:59.326176","CLASSIFICATION_TYPE":"U","MEAN_MOTION":13.10369226,"ECCENTRICITY":0.00020833,"INCLINATION":87.8817,"RA_OF_ASC_NODE":30.2775,"ARG_OF_PERICENTER":95.0231,"MEAN_ANOMALY":265.1135,"EPHEMERIS_TYPE":0,"NORAD_CAT_ID":45163,"ELEMENT_SET_NO":999,"REV_AT_EPOCH":31212,"BSTAR":-0.00066553762,"MEAN_MOTION_DOT":-0.0000022,"MEAN_MOTION_DDOT":0},{"OBJECT_NAME":"ONEWEB-0065","OBJECT_ID":"2020-008AK","EPOCH":"2026-07-17T06:32:50.545536","CLASSIFICATION_TYPE":"U","MEAN_MOTION":13.10376426,"ECCENTRICITY":0.0001803,"INCLINATION":87.8823,"RA_OF_ASC_NODE":30.2785,"ARG_OF_PERICENTER":78.1688,"MEAN_ANOMALY":281.9642,"EPHEMERIS_TYPE":0,"NORAD_CAT_ID":45164,"ELEMENT_SET_NO":999,"REV_AT_EPOCH":31182,"BSTAR":-0.00080054124,"MEAN_MOTION_DOT":-0.00000267,"MEAN_MOTION_DDOT":0},{"OBJECT_NAME":"ONEWEB-0066","OBJECT_ID":"2020-020A","EPOCH":"2026-07-17T04:58:56.064576","CLASSIFICATION_TYPE":"U","MEAN_MOTION":13.11420054,"ECCENTRICITY":0.00017367,"INCLINATION":87.8882,"RA_OF_ASC_NODE":15.0922,"ARG_OF_PERICENTER":94.8705,"MEAN_ANOMALY":265.2621,"EPHEMERIS_TYPE":0,"NORAD_CAT_ID":45424,"ELEMENT_SET_NO":999,"REV_AT_EPOCH":30661,"BSTAR":-0.0015124756,"MEAN_MOTION_DOT":-0.00000523,"MEAN_MOTION_DDOT":0},{"OBJECT_NAME":"ONEWEB-0067","OBJECT_ID":"2020-020B","EPOCH":"2026-07-17T05:53:16.403136","CLASSIFICATION_TYPE":"U","MEAN_MOTION":13.11425775,"ECCENTRICITY":0.00017334,"INCLINATION":87.8905,"RA_OF_ASC_NODE":15.0127,"ARG_OF_PERICENTER":86.6499,"MEAN_ANOMALY":273.4827,"EPHEMERIS_TYPE":0,"NORAD_CAT_ID":45425,"ELEMENT_SET_NO":999,"REV_AT_EPOCH":30667,"BSTAR":0.0011583052,"MEAN_MOTION_DOT":0.00000423,"MEAN_MOTION_DDOT":0},{"OBJECT_NAME":"ONEWEB-0080","OBJECT_ID":"2020-020C","EPOCH":"2026-07-17T05:52:55.010496","CLASSIFICATION_TYPE":"U","MEAN_MOTION":13.1141712,"ECCENTRICITY":0.00021144,"INCLINATION":87.8895,"RA_OF_ASC_NODE":15.0846,"ARG_OF_PERICENTER":97.3231,"MEAN_ANOMALY":262.8138,"EPHEMERIS_TYPE":0,"NORAD_CAT_ID":45426,"ELEMENT_SET_NO":999,"REV_AT_EPOCH":30664,"BSTAR":0.0010073337,"MEAN_MOTION_DOT":0.0000037,"MEAN_MOTION_DDOT":0},{"OBJECT_NAME":"ONEWEB-0090","OBJECT_ID":"2020-020D","EPOCH":"2026-07-16T23:14:55.441536","CLASSIFICATION_TYPE":"U","MEAN_MOTION":13.11415304,"ECCENTRICITY":0.00019171,"INCLINATION":87.8893,"RA_OF_ASC_NODE":15.1435,"ARG_OF_PERICENTER":93.0229,"MEAN_ANOMALY":267.1119,"EPHEMERIS_TYPE":0,"NORAD_CAT_ID":45427,"ELEMENT_SET_NO":999,"REV_AT_EPOCH":30657,"BSTAR":-0.00067705444,"MEAN_MOTION_DOT":-0.00000227,"MEAN_MOTION_DDOT":0},{"OBJECT_NAME":"ONEWEB-0061","OBJECT_ID":"2020-020E","EPOCH":"2026-07-17T00:00:54.946944","CLASSIFICATION_TYPE":"U","MEAN_MOTION":13.11418631,"ECCENTRICITY":0.00018442,"INCLINATION":87.8892,"RA_OF_ASC_NODE":15.1215,"ARG_OF_PERICENTER":92.1059,"MEAN_ANOMALY":268.028,"EPHEMERIS_TYPE":0,"NORAD_CAT_ID":45428,"ELEMENT_SET_NO":999,"REV_AT_EPOCH":30653,"BSTAR":-0.00016788518,"MEAN_MOTION_DOT":-4.7e-7,"MEAN_MOTION_DDOT":0},{"OBJECT_NAME":"ONEWEB-0081","OBJECT_ID":"2020-020F","EPOCH":"2026-07-16T23:34:15.033216","CLASSIFICATION_TYPE":"U","MEAN_MOTION":13.1141685,"ECCENTRICITY":0.00016322,"INCLINATION":87.8888,"RA_OF_ASC_NODE":15.1342,"ARG_OF_PERICENTER":90.9859,"MEAN_ANOMALY":269.1456,"EPHEMERIS_TYPE":0,"NORAD_CAT_ID":45429,"ELEMENT_SET_NO":999,"REV_AT_EPOCH":30664,"BSTAR":-0.0013794058,"MEAN_MOTION_DOT":-0.00000476,"MEAN_MOTION_DDOT":0},{"OBJECT_NAME":"ONEWEB-0069","OBJECT_ID":"2020-020G","EPOCH":"2026-07-17T05:06:29.056320","CLASSIFICATION_TYPE":"U","MEAN_MOTION":13.11418334,"ECCENTRICITY":0.00016432,"INCLINATION":87.8891,"RA_OF_ASC_NODE":15.0919,"ARG_OF_PERICENTER":94.0316,"MEAN_ANOMALY":266.0999,"EPHEMERIS_TYPE":0,"NORAD_CAT_ID":45430,"ELEMENT_SET_NO":999,"REV_AT_EPOCH":30660,"BSTAR":-0.0018291954,"MEAN_MOTION_DOT":-0.00000636,"MEAN_MOTION_DDOT":0},{"OBJECT_NAME":"ONEWEB-0031","OBJECT_ID":"2020-020H","EPOCH":"2026-07-16T22:38:08.306880","CLASSIFICATION_TYPE":"U","MEAN_MOTION":13.11418109,"ECCENTRICITY":0.00019949,"INCLINATION":87.8882,"RA_OF_ASC_NODE":15.1484,"ARG_OF_PERICENTER":94.8327,"MEAN_ANOMALY":265.3029,"EPHEMERIS_TYPE":0,"NORAD_CAT_ID":45431,"ELEMENT_SET_NO":999,"REV_AT_EPOCH":30655,"BSTAR":0.0014664629,"MEAN_MOTION_DOT":0.00000532,"MEAN_MOTION_DDOT":0},{"OBJECT_NAME":"ONEWEB-0027","OBJECT_ID":"2020-020J","EPOCH":"2026-07-16T22:50:58.597440","CLASSIFICATION_TYPE":"U","MEAN_MOTION":13.17652018,"ECCENTRICITY":0.00022897,"INCLINATION":87.9147,"RA_OF_ASC_NODE":359.9439,"ARG_OF_PERICENTER":92.7229,"MEAN_ANOMALY":267.4164,"EPHEMERIS_TYPE":0,"NORAD_CAT_ID":45432,"ELEMENT_SET_NO":999,"REV_AT_EPOCH":31027,"BSTAR":-0.000013851903,"MEAN_MOTION_DOT":8e-8,"MEAN_MOTION_DDOT":0},{"OBJECT_NAME":"ONEWEB-0064","OBJECT_ID":"2020-020K","EPOCH":"2026-07-17T05:55:08.795712","CLASSIFICATION_TYPE":"U","MEAN_MOTION":13.11416409,"ECCENTRICITY":0.00020378,"INCLINATION":87.8887,"RA_OF_ASC_NODE":15.0809,"ARG_OF_PERICENTER":92.1074,"MEAN_ANOMALY":268.0287,"EPHEMERIS_TYPE":0,"NORAD_CAT_ID":45433,"ELEMENT_SET_NO":999,"REV_AT_EPOCH":30662,"BSTAR":0.0013274789,"MEAN_MOTION_DOT":0.00000483,"MEAN_MOTION_DDOT":0}]}
